{
  "norad_id": 62451,
  "name": "STARLINK-32720",
  "history": [
    {
      "epoch": "2026-03-28T19:29:56.467104Z",
      "apogee_km": 475.89102641279715,
      "perigee_km": 474.4601918062672,
      "latitude_deg": 1.1155056834374818e-05,
      "longitude_deg": 127.94839657879348,
      "height_km": 476.13831225365914,
      "semi_major_axis_km": 6853.312609109532,
      "eccentricity": 0.00010439,
      "inclination_deg": 53.1587,
      "raan_deg": 246.6612,
      "arg_perigee_deg": 95.1689,
      "mean_anomaly_deg": 264.9431,
      "mean_motion_rev_day": 15.30213216
    },
    {
      "epoch": "2026-03-29T03:20:12.704352Z",
      "apogee_km": 476.3141344702699,
      "perigee_km": 474.0744658013864,
      "latitude_deg": 4.794245507207529e-05,
      "longitude_deg": 8.5410799847127,
      "height_km": 476.0089087871347,
      "semi_major_axis_km": 6853.331300135828,
      "eccentricity": 0.0001634,
      "inclination_deg": 53.1579,
      "raan_deg": 245.1434,
      "arg_perigee_deg": 85.763,
      "mean_anomaly_deg": 274.3558,
      "mean_motion_rev_day": 15.30206956
    },
    {
      "epoch": "2026-03-30T02:51:00.655776Z",
      "apogee_km": 476.0384036369578,
      "perigee_km": 474.3442608732239,
      "latitude_deg": 3.58937864665862e-06,
      "longitude_deg": 10.3255921793546,
      "height_km": 475.9728562512399,
      "semi_major_axis_km": 6853.328332255091,
      "eccentricity": 0.0001236,
      "inclination_deg": 53.1577,
      "raan_deg": 240.5934,
      "arg_perigee_deg": 82.1037,
      "mean_anomaly_deg": 278.0104,
      "mean_motion_rev_day": 15.3020795
    },
    {
      "epoch": "2026-03-30T02:51:00.656640Z",
      "apogee_km": 476.03854070352463,
      "perigee_km": 474.344123806658,
      "latitude_deg": 1.7617977210090985e-06,
      "longitude_deg": 10.325587207759481,
      "height_km": 475.9728374212712,
      "semi_major_axis_km": 6853.328332255091,
      "eccentricity": 0.00012362,
      "inclination_deg": 53.1577,
      "raan_deg": 240.5934,
      "arg_perigee_deg": 82.1037,
      "mean_anomaly_deg": 278.0104,
      "mean_motion_rev_day": 15.3020795
    },
    {
      "epoch": "2026-03-30T13:49:23.262816Z",
      "apogee_km": 475.76379056742553,
      "perigee_km": 474.6439546688398,
      "latitude_deg": 5.5193370948434504e-05,
      "longitude_deg": -156.84230773869228,
      "height_km": 476.1104929194619,
      "semi_major_axis_km": 6853.340872618132,
      "eccentricity": 8.17e-05,
      "inclination_deg": 53.1584,
      "raan_deg": 238.4703,
      "arg_perigee_deg": 90.8306,
      "mean_anomaly_deg": 269.2789,
      "mean_motion_rev_day": 15.3020375
    },
    {
      "epoch": "2026-03-30T16:57:29.947968Z",
      "apogee_km": 476.0089822905511,
      "perigee_km": 474.6522698392955,
      "latitude_deg": -3.376366131835977e-05,
      "longitude_deg": 155.3937136404818,
      "height_km": 476.0584247281936,
      "semi_major_axis_km": 6853.467626064923,
      "eccentricity": 9.898e-05,
      "inclination_deg": 53.1584,
      "raan_deg": 237.863,
      "arg_perigee_deg": 75.4414,
      "mean_anomaly_deg": 284.6696,
      "mean_motion_rev_day": 15.30161299
    },
    {
      "epoch": "2026-03-31T16:28:18.079104Z",
      "apogee_km": 475.78457847310347,
      "perigee_km": 474.5852471383623,
      "latitude_deg": -1.82916286451211e-05,
      "longitude_deg": 157.1771202876133,
      "height_km": 476.01204250039484,
      "semi_major_axis_km": 6853.321912805733,
      "eccentricity": 8.75e-05,
      "inclination_deg": 53.1571,
      "raan_deg": 233.3126,
      "arg_perigee_deg": 83.1829,
      "mean_anomaly_deg": 276.9271,
      "mean_motion_rev_day": 15.302101
    },
    {
      "epoch": "2026-04-01T15:59:05.589888Z",
      "apogee_km": 477.17318599780447,
      "perigee_km": 473.065344192506,
      "latitude_deg": -3.480143040604236e-05,
      "longitude_deg": 158.9648949436042,
      "height_km": 476.3198651069646,
      "semi_major_axis_km": 6853.256265095155,
      "eccentricity": 0.0002997,
      "inclination_deg": 53.1593,
      "raan_deg": 228.764,
      "arg_perigee_deg": 98.5428,
      "mean_anomaly_deg": 261.5912,
      "mean_motion_rev_day": 15.30232087
    },
    {
      "epoch": "2026-04-02T15:29:52.946016Z",
      "apogee_km": 476.596451368041,
      "perigee_km": 473.88361060409625,
      "latitude_deg": 5.41875619317088e-05,
      "longitude_deg": 160.74739397070252,
      "height_km": 476.1876185996636,
      "semi_major_axis_km": 6853.377030986068,
      "eccentricity": 0.00019792,
      "inclination_deg": 53.1567,
      "raan_deg": 224.2094,
      "arg_perigee_deg": 92.1499,
      "mean_anomaly_deg": 267.9729,
      "mean_motion_rev_day": 15.3019164
    }
  ]
}